NORAD_CAT_ID,OBJECT_NAME,OBJECT_TYPE,EPOCH,MEAN_MOTION,ECCENTRICITY,INCLINATION,RA_OF_ASC_NODE,ARG_OF_PERICENTER,MEAN_ANOMALY,BSTAR,MEAN_MOTION_DOT,MEAN_MOTION_DDOT,TLE_LINE0,TLE_LINE1,TLE_LINE2,SEMIMAJOR_AXIS,PERIOD,APOGEE,PERIGEE,DECAYED
52282.0,STARLINK-3783,PAYLOAD,2023-04-03 02:03:16,15.08838757,0.0001225,53.2153,229.7475,89.0702,271.0431,0.00026749,3.972e-05,0.0,0 STARLINK-3783,1 52282U 22041X   23093.08561191  .00003972  00000-0  26749-3 0  9998,2 52282  53.2153 229.7475 0001225  89.0702 271.0431 15.08838757 53943,6917.884,95.438,540.597,538.902,0.0
52282.0,STARLINK-3783,PAYLOAD,2023-04-03 10:00:12,15.08830161,0.0001051,53.2151,228.2608,89.9522,270.1591,2.2382e-05,6.8e-07,0.0,0 STARLINK-3783,1 52282U 22041X   23093.41681617  .00000068  00000-0  22382-4 0  9994,2 52282  53.2151 228.2608 0001051  89.9522 270.1591 15.08830161 53992,6917.91,95.438,540.503,539.048,0.0
52282.0,STARLINK-3783,PAYLOAD,2023-04-03 19:32:30,15.08878946,0.000128,53.2151,226.475,67.2206,292.8922,0.0011342,0.00017828,0.0,0 STARLINK-3783,1 52282U 22041X   23093.81424298  .00017828  00000-0  11342-2 0  9992,2 52282  53.2151 226.4750 0001280  67.2206 292.8922 15.08878946 54052,6917.761,95.435,540.512,538.741,0.0
52282.0,STARLINK-3783,PAYLOAD,2023-04-04 01:54:03,15.08839223,1.59e-05,53.2149,225.286,3.9818,356.1176,9.3604e-05,1.203e-05,0.0,0 STARLINK-3783,1 52282U 22041X   23094.07921014  .00001203  00000-0  93604-4 0  9992,2 52282  53.2149 225.2860 0000159   3.9818 356.1176 15.08839223 54092,6917.883,95.438,539.858,539.638,0.0
52282.0,STARLINK-3783,PAYLOAD,2023-04-04 09:50:59,15.08840576,6.64e-05,53.2147,223.799,62.6177,297.4882,0.00018714,2.692e-05,0.0,0 STARLINK-3783,1 52282U 22041X   23094.41041254  .00002692  00000-0  18714-3 0  9990,2 52282  53.2147 223.7990 0000664  62.6177 297.4882 15.08840576 52922,6917.879,95.438,540.203,539.284,0.0
52282.0,STARLINK-3783,PAYLOAD,2023-04-05 14:27:56,15.08841574,0.0001395,53.217,218.4469,63.2936,296.8198,0.00019378,2.798e-05,0.0,0 STARLINK-3783,1 52282U 22041X   23095.60273489  .00002798  00000-0  19378-3 0  9993,2 52282  53.2170 218.4469 0001395  63.2936 296.8198 15.08841574 54320,6917.876,95.437,540.706,538.776,0.0
52282.0,STARLINK-3783,PAYLOAD,2023-04-06 11:07:58,15.08807585,8.55e-05,53.2162,214.5812,93.0705,267.0385,0.0011494,0.00018036,0.0,0 STARLINK-3783,1 52282U 22041X   23096.46387409  .00018036  00000-0  11494-2 0  9998,2 52282  53.2162 214.5812 0000855  93.0705 267.0385 15.08807585 54451,6917.979,95.44,540.436,539.253,0.0
52282.0,STARLINK-3783,PAYLOAD,2023-04-06 17:29:28,15.08850323,0.0001344,53.2152,213.3903,91.538,268.5766,0.00019956,2.89e-05,0.0,0 STARLINK-3783,1 52282U 22041X   23096.72880756  .00002890  00000-0  19956-3 0  9993,2 52282  53.2152 213.3903 0001344  91.5380 268.5766 15.08850323 54495,6917.849,95.437,540.644,538.784,0.0
52282.0,STARLINK-3783,PAYLOAD,2023-04-07 01:26:25,15.088391,0.0002146,53.2153,211.9039,85.1823,274.9415,0.0001269,1.732e-05,0.0,0 STARLINK-3783,1 52282U 22041X   23097.06001532  .00001732  00000-0  12690-3 0  9990,2 52282  53.2153 211.9039 0002146  85.1823 274.9415 15.08839100 54540,6917.883,95.438,541.233,538.264,0.0
52282.0,STARLINK-3783,PAYLOAD,2023-04-07 12:34:06,15.08842079,0.0001233,53.2156,209.8234,90.5917,269.5217,0.00013332,1.835e-05,0.0,0 STARLINK-3783,1 52282U 22041X   23097.52369108  .00001835  00000-0  13332-3 0  9995,2 52282  53.2156 209.8234 0001233  90.5917 269.5217 15.08842079 53397,6917.874,95.437,540.592,538.886,0.0
52282.0,STARLINK-3783,PAYLOAD,2023-04-08 12:24:54,15.08836861,0.0001079,53.2159,205.3639,87.7602,272.3514,2.7234e-05,1.46e-06,0.0,0 STARLINK-3783,1 52282U 22041X   23098.51729471  .00000146  00000-0  27234-4 0  9999,2 52282  53.2159 205.3639 0001079  87.7602 272.3514 15.08836861 54763,6917.89,95.438,540.501,539.009,0.0
52282.0,STARLINK-3783,PAYLOAD,2023-04-09 10:40:21,15.08742267,9.76e-05,53.2185,201.202,136.4534,223.6535,0.001439,0.00022627,0.0,0 STARLINK-3783,1 52282U 22041X   23099.44469207  .00022627  00000-0  14390-2 0  9995,2 52282  53.2185 201.2020 0000976 136.4534 223.6535 15.08742267 53680,6918.179,95.444,540.719,539.369,0.0
52282.0,STARLINK-3783,PAYLOAD,2023-04-09 17:01:50,15.08840133,0.000144,53.218,200.0107,116.0155,244.0985,4.6137e-05,4.46e-06,0.0,0 STARLINK-3783,1 52282U 22041X   23099.70961477  .00000446  00000-0  46137-4 0  9991,2 52282  53.2180 200.0107 0001440 116.0155 244.0985 15.08840133 54945,6917.88,95.438,540.741,538.749,0.0
52282.0,STARLINK-3783,PAYLOAD,2023-04-10 05:44:56,15.08838162,0.0001053,53.217,197.6314,93.3591,266.7521,8.93e-05,1.134e-05,0.0,0 STARLINK-3783,1 52282U 22041X   23100.23953808  .00001134  00000-0  89300-4 0  9995,2 52282  53.2170 197.6314 0001053  93.3591 266.7521 15.08838162 53806,6917.886,95.438,540.479,539.023,0.0
52282.0,STARLINK-3783,PAYLOAD,2023-04-11 11:57:15,15.0884284,0.0001308,53.2168,191.9825,76.7917,283.3221,0.00010165,1.33e-05,0.0,0 STARLINK-3783,1 52282U 22041X   23101.49809467  .00001330  00000-0  10165-3 0  9995,2 52282  53.2168 191.9825 0001308  76.7917 283.3221 15.08842840 53997,6917.872,95.437,540.642,538.832,0.0
52282.0,STARLINK-3783,PAYLOAD,2023-04-12 11:48:02,15.08839347,0.0001538,53.2184,187.5239,79.2878,280.8287,-1.4478e-05,-5.18e-06,0.0,0 STARLINK-3783,1 52282U 22041X   23102.49169823 -.00000518  00000-0 -14478-4 0  9992,2 52282  53.2184 187.5239 0001538  79.2878 280.8287 15.08839347 55369,6917.882,95.438,540.811,538.683,0.0
52282.0,STARLINK-3783,PAYLOAD,2023-04-13 05:17:17,15.08836678,0.0001427,53.2177,184.2525,71.2101,288.9046,-4.0071e-06,-3.52e-06,0.0,0 STARLINK-3783,1 52282U 22041X   23103.22033894 -.00000352  00000-0 -40071-5 0  9997,2 52282  53.2177 184.2525 0001427  71.2101 288.9046 15.08836678 54254,6917.891,95.438,540.743,538.768,0.0
52282.0,STARLINK-3783,PAYLOAD,2023-04-13 16:24:58,15.0884598,0.000148,53.2157,182.1691,76.999,283.1168,7.4912e-05,9.05e-06,0.0,0 STARLINK-3783,1 52282U 22041X   23103.68401006  .00000905  00000-0  74912-4 0  9993,2 52282  53.2157 182.1691 0001480  76.9990 283.1168 15.08845980 55541,6917.862,95.437,540.751,538.703,0.0
52282.0,STARLINK-3783,PAYLOAD,2023-04-14 11:29:36,15.08842963,0.000119,53.2161,178.6039,65.5798,294.5318,9.8623e-06,-1.31e-06,0.0,0 STARLINK-3783,1 52282U 22041X   23104.47889612 -.00000131  00000-0  98623-5 0  9992,2 52282  53.2161 178.6039 0001190  65.5798 294.5318 15.08842963 54449,6917.871,95.437,540.56,538.913,0.0
52282.0,STARLINK-3783,PAYLOAD,2023-04-15 04:58:51,15.08833399,0.0001422,53.2177,175.3339,69.0215,291.0929,4.7567e-05,4.69e-06,0.0,0 STARLINK-3783,1 52282U 22041X   23105.20754381  .00000469  00000-0  47567-4 0  9991,2 52282  53.2177 175.3339 0001422  69.0215 291.0929 15.08833399 55774,6917.901,95.438,540.749,538.782,0.0
52282.0,STARLINK-3783,PAYLOAD,2023-04-15 11:20:24,15.0883549,0.0001294,53.2174,174.1428,73.9157,286.1977,1.6451e-05,-2.6e-07,0.0,0 STARLINK-3783,1 52282U 22041X   23105.47250364 -.00000026  00000-0  16451-4 0  9990,2 52282  53.2174 174.1428 0001294  73.9157 286.1977 15.08835490 54594,6917.894,95.438,540.654,538.864,0.0
52282.0,STARLINK-3783,PAYLOAD,2023-04-16 11:11:10,15.08848995,0.0001345,53.2171,169.6805,104.0154,256.0988,0.00012605,1.719e-05,0.0,0 STARLINK-3783,1 52282U 22041X   23106.46609297  .00001719  00000-0  12605-3 0  9998,2 52282  53.2171 169.6805 0001345 104.0154 256.0988 15.08848995 55963,6917.853,95.437,540.648,538.787,0.0
52282.0,STARLINK-3783,PAYLOAD,2023-04-17 12:37:21,15.08837706,0.0001317,53.2168,164.9228,88.0887,272.0256,8.1292e-05,1.006e-05,0.0,0 STARLINK-3783,1 52282U 22041X   23107.52594453  .00001006  00000-0  81292-4 0  9991,2 52282  53.2168 164.9228 0001317  88.0887 272.0256 15.08837706 54906,6917.887,95.438,540.663,538.841,0.0
52282.0,STARLINK-3783,PAYLOAD,2023-04-17 20:34:17,15.08834817,0.00013,53.2163,163.4348,89.1423,270.9718,4.153e-05,3.73e-06,0.0,0 STARLINK-3783,1 52282U 22041X   23107.85714782  .00000373  00000-0  41530-4 0  9993,2 52282  53.2163 163.4348 0001300  89.1423 270.9718 15.08834817 54953,6917.896,95.438,540.661,538.862,0.0
52282.0,STARLINK-3783,PAYLOAD,2023-04-18 09:17:22,15.08844941,0.0001348,53.216,161.0557,90.2978,269.8169,1.3409e-05,-7.4e-07,0.0,0 STARLINK-3783,1 52282U 22041X   23108.38706278 -.00000074  00000-0  13409-4 0  9996,2 52282  53.2160 161.0557 0001348  90.2978 269.8169 15.08844941 55032,6917.865,95.437,540.663,538.798,0.0
52282.0,STARLINK-3783,PAYLOAD,2023-04-18 12:28:08,15.08845041,0.0001769,53.2163,160.4609,100.6002,259.519,7.0604e-05,8.36e-06,0.0,0 STARLINK-3783,1 52282U 22041X   23108.51954111  .00000836  00000-0  70604-4 0  9997,2 52282  53.2163 160.4609 0001769 100.6002 259.5190 15.08845041 55051,6917.865,95.437,540.954,538.506,0.0
52282.0,STARLINK-3783,PAYLOAD,2023-04-19 12:18:55,15.08839192,0.0001574,53.216,156.0007,85.8329,274.2843,0.00010418,1.37e-05,0.0,0 STARLINK-3783,1 52282U 22041X   23109.51314556  .00001370  00000-0  10418-3 0  9991,2 52282  53.2160 156.0007 0001574  85.8329 274.2843 15.08839192 56422,6917.883,95.438,540.837,538.659,0.0
52282.0,STARLINK-3783,PAYLOAD,2023-04-19 20:15:51,15.08842427,0.0001577,53.2165,154.5138,81.964,278.1531,7.5269e-05,9.1e-06,0.0,0 STARLINK-3783,1 52282U 22041X   23109.84434425  .00000910  00000-0  75269-4 0  9990,2 52282  53.2165 154.5138 0001577  81.9640 278.1531 15.08842427 55253,6917.873,95.437,540.829,538.647,0.0
52282.0,STARLINK-3783,PAYLOAD,2023-04-20 12:09:42,15.08841332,0.0001514,53.2158,151.5402,87.8219,272.2946,5.1309e-05,5.29e-06,0.0,0 STARLINK-3783,1 52282U 22041X   23110.50674561  .00000529  00000-0  51309-4 0  9997,2 52282  53.2158 151.5402 0001514  87.8219 272.2946 15.08841332 55354,6917.876,95.437,540.789,538.694,0.0
52282.0,STARLINK-3783,PAYLOAD,2023-04-20 20:06:38,15.08836989,0.000139,53.2152,150.0534,83.981,276.134,-5.0917e-05,-1.098e-05,0.0,0 STARLINK-3783,1 52282U 22041X   23110.83795013 -.00001098  00000-0 -50917-4 0  9997,2 52282  53.2152 150.0534 0001390  83.9810 276.1340 15.08836989 55403,6917.89,95.438,540.716,538.793,0.0
